[{"OBJECT_NAME":"STARLINK-3210","OBJECT_ID":"2021-115AH","EPOCH":"2026-03-09T12:52:13.484352","MEAN_MOTION":15.08824357,"ECCENTRICITY":0.00012881,"INCLINATION":53.2171,"RA_OF_ASC_NODE":149.855,"ARG_OF_PERICENTER":89.9257,"MEAN_ANOMALY":270.1883,"EPHEMERIS_TYPE":0,"CLASSIFICATION_TYPE":"U","NORAD_CAT_ID":49755,"ELEMENT_SET_NO":999,"REV_AT_EPOCH":23551,"BSTAR":-0.0001427929,"MEAN_MOTION_DOT":-2.559e-5,"MEAN_MOTION_DDOT":0},{"OBJECT_NAME":"CZ-4C R\/B","OBJECT_ID":"2022-106B","EPOCH":"2026-03-09T16:53:51.363744","MEAN_MOTION":15.02433181,"ECCENTRICITY":0.01103472,"INCLINATION":98.0511,"RA_OF_ASC_NODE":147.9459,"ARG_OF_PERICENTER":124.4586,"MEAN_ANOMALY":236.7124,"EPHEMERIS_TYPE":0,"CLASSIFICATION_TYPE":"U","NORAD_CAT_ID":53699,"ELEMENT_SET_NO":999,"REV_AT_EPOCH":19198,"BSTAR":0.00037068081,"MEAN_MOTION_DOT":5.536e-5,"MEAN_MOTION_DDOT":0}]
